{
    "links": {
        "self": "http://www.neowsapp.com/rest/v1/neo/3843587?api_key=iIulBulltgU6a56xZRHN4H3l9WmuAYTsLGpBGhQ2"
    },
    "id": "3843587",
    "neo_reference_id": "3843587",
    "name": "(2019 QW)",
    "designation": "2019 QW",
    "nasa_jpl_url": "http://ssd.jpl.nasa.gov/sbdb.cgi?sstr=3843587",
    "absolute_magnitude_h": 22.7,
    "estimated_diameter": {
        "kilometers": {
            "estimated_diameter_min": 0.0766575574,
            "estimated_diameter_max": 0.1714115092
        },
        "meters": {
            "estimated_diameter_min": 76.6575573531,
            "estimated_diameter_max": 171.4115092306
        },
        "miles": {
            "estimated_diameter_min": 0.0476327831,
            "estimated_diameter_max": 0.1065101409
        },
        "feet": {
            "estimated_diameter_min": 251.5011804664,
            "estimated_diameter_max": 562.3737359442
        }
    },
    "is_potentially_hazardous_asteroid": false,
    "close_approach_data": [
        {
            "close_approach_date": "2019-08-24",
            "close_approach_date_full": "2019-Aug-24 18:50",
            "epoch_date_close_approach": 1566672600000,
            "relative_velocity": {
                "kilometers_per_second": "12.769332682",
                "kilometers_per_hour": "45969.5976550571",
                "miles_per_hour": "28563.720276277"
            },
            "miss_distance": {
                "astronomical": "0.139182891",
                "lunar": "54.142144599",
                "kilometers": "20821464.03404217",
                "miles": "12937857.814315146"
            },
            "orbiting_body": "Earth"
        }
    ],
    "orbital_data": {
        "orbit_id": "6",
        "orbit_determination_date": "2019-09-06 06:02:17",
        "first_observation_date": "2019-08-21",
        "last_observation_date": "2019-09-03",
        "data_arc_in_days": 13,
        "observations_used": 46,
        "orbit_uncertainty": "8",
        "minimum_orbit_intersection": ".135836",
        "jupiter_tisserand_invariant": "4.537",
        "epoch_osculation": "2458718.5",
        "eccentricity": ".2283681371839792",
        "semi_major_axis": "1.44450232826853",
        "inclination": "24.32677176779511",
        "ascending_node_longitude": "327.3909269646653",
        "orbital_period": "634.1263445128095",
        "perihelion_distance": "1.114624022403925",
        "perihelion_argument": "34.13389653112411",
        "aphelion_distance": "1.774380634133135",
        "perihelion_time": "2458755.047641252873",
        "mean_anomaly": "339.2515309214243",
        "mean_motion": ".5677102096689942",
        "equinox": "J2000",
        "orbit_class": {
            "orbit_class_type": "AMO",
            "orbit_class_description": "Near-Earth asteroid orbits similar to that of 1221 Amor",
            "orbit_class_range": "1.017 AU < q (perihelion) < 1.3 AU"
        }
    },
    "is_sentry_object": false
}